{"type": "FeatureCollection", "features": [ {"type": "Feature", "properties": {"norad_id": 66860, "name": "STARLINK-35987", "group": "last-30-days", "lat": 28.900475263962715, "lon": 66.80537875591003, "alt_km": 411.0264129454108, "timestamp": "2025-12-27T23:26:36.073797+00:00", "meta": {"OBJECT_NAME": "STARLINK-35987", "OBJECT_ID": "2025-281N", "EPOCH": "2025-12-27T12:00:02.000160", "MEAN_MOTION": 15.50561204, "ECCENTRICITY": 0.0001326, "INCLINATION": 43.0004, "RA_OF_ASC_NODE": 33.2668, "ARG_OF_PERICENTER": 276.8172, "MEAN_ANOMALY": 343.7751, "EPHEMERIS_TYPE": 0, "CLASSIFICATION_TYPE": "U", "NORAD_CAT_ID": 66860, "ELEMENT_SET_NO": 999, "REV_AT_EPOCH": 376, "BSTAR": -0.00010399, "MEAN_MOTION_DOT": -6.433e-05, "MEAN_MOTION_DDOT": 0}, "tle": {"line1": "1 66860U 25281N   25361.50002315 -.00006433  00000+0 -10399-3 0  9999", "line2": "2 66860  43.0004  33.2668 0001326 276.8172 343.7751 15.50561204  3767"}}, "geometry": {"type": "Point", "coordinates": [66.80537875591003, 28.900475263962715]}}, {"type": "Feature", "properties": {"norad_id": 66861, "name": "STARLINK-35991", "group": "last-30-days", "lat": 25.630291388309097, "lon": 61.479534767119134, "alt_km": 411.2811970418943, "timestamp": "2025-12-27T23:26:36.073807+00:00", "meta": {"OBJECT_NAME": "STARLINK-35991", "OBJECT_ID": "2025-281P", "EPOCH": "2025-12-27T12:00:02.000160", "MEAN_MOTION": 15.50555579, "ECCENTRICITY": 8.14e-05, "INCLINATION": 43.0004, "RA_OF_ASC_NODE": 33.2814, "ARG_OF_PERICENTER": 277.1776, "MEAN_ANOMALY": 337.6596, "EPHEMERIS_TYPE": 0, "CLASSIFICATION_TYPE": "U", "NORAD_CAT_ID": 66861, "ELEMENT_SET_NO": 999, "REV_AT_EPOCH": 375, "BSTAR": 0.00014067, "MEAN_MOTION_DOT": 7.913e-05, "MEAN_MOTION_DDOT": 0}, "tle": {"line1": "1 66861U 25281P   25361.50002315  .00007913  00000+0  14067-3 0  9998", "line2": "2 66861  43.0004  33.2814 0000814 277.1776 337.6596 15.50555579  3752"}}, "geometry": {"type": "Point", "coordinates": [61.479534767119134, 25.630291388309097]}}, {"type": "Feature", "properties": {"norad_id": 66862, "name": "STARLINK-35974", "group": "last-30-days", "lat": 24.502359171809942, "lon": 59.77844741408463, "alt_km": 411.4844995373487, "timestamp": "2025-12-27T23:26:36.073819+00:00", "meta": {"OBJECT_NAME": "STARLINK-35974", "OBJECT_ID": "2025-281Q", "EPOCH": "2025-12-27T12:00:02.000160", "MEAN_MOTION": 15.50562439, "ECCENTRICITY": 0.0001035, "INCLINATION": 43.0004, "RA_OF_ASC_NODE": 33.2862, "ARG_OF_PERICENTER": 281.1924, "MEAN_ANOMALY": 331.7286, "EPHEMERIS_TYPE": 0, "CLASSIFICATION_TYPE": "U", "NORAD_CAT_ID": 66862, "ELEMENT_SET_NO": 999, "REV_AT_EPOCH": 365, "BSTAR": -5.9267e-05, "MEAN_MOTION_DOT": -3.814e-05, "MEAN_MOTION_DDOT": 0}, "tle": {"line1": "1 66862U 25281Q   25361.50002315 -.00003814  00000+0 -59267-4 0  9999", "line2": "2 66862  43.0004  33.2862 0001035 281.1924 331.7286 15.50562439  3655"}}, "geometry": {"type": "Point", "coordinates": [59.77844741408463, 24.502359171809942]}}, {"type": "Feature", "properties": {"norad_id": 66863, "name": "STARLINK-36134", "group": "last-30-days", "lat": 26.74258527181103, "lon": 63.220322064992345, "alt_km": 411.1205510927539, "timestamp": "2025-12-27T23:26:36.073829+00:00", "meta": {"OBJECT_NAME": "STARLINK-36134", "OBJECT_ID": "2025-281R", "EPOCH": "2025-12-27T12:00:02.000160", "MEAN_MOTION": 15.50559876, "ECCENTRICITY": 8.42e-05, "INCLINATION": 43.0004, "RA_OF_ASC_NODE": 33.2768, "ARG_OF_PERICENTER": 279.6651, "MEAN_ANOMALY": 337.0913, "EPHEMERIS_TYPE": 0, "CLASSIFICATION_TYPE": "U", "NORAD_CAT_ID": 66863, "ELEMENT_SET_NO": 999, "REV_AT_EPOCH": 375, "BSTAR": -2.3082e-05, "MEAN_MOTION_DOT": -1.694e-05, "MEAN_MOTION_DDOT": 0}, "tle": {"line1": "1 66863U 25281R   25361.50002315 -.00001694  00000+0 -23082-4 0  9990", "line2": "2 66863  43.0004  33.2768 0000842 279.6651 337.0913 15.50559876  3753"}}, "geometry": {"type": "Point", "coordinates": [63.220322064992345, 26.74258527181103]}}, {"type": "Feature", "properties": {"norad_id": 66864, "name": "STARLINK-36070", "group": "last-30-days", "lat": 27.83123784291168, "lon": 64.99230763906391, "alt_km": 411.00417117511006, "timestamp": "2025-12-27T23:26:36.073838+00:00", "meta": {"OBJECT_NAME": "STARLINK-36070", "OBJECT_ID": "2025-281S", "EPOCH": "2025-12-27T12:00:02.000160", "MEAN_MOTION": 15.50606605, "ECCENTRICITY": 9.34e-05, "INCLINATION": 43.0004, "RA_OF_ASC_NODE": 33.2724, "ARG_OF_PERICENTER": 285.9706, "MEAN_ANOMALY": 332.6797, "EPHEMERIS_TYPE": 0, "CLASSIFICATION_TYPE": "U", "NORAD_CAT_ID": 66864, "ELEMENT_SET_NO": 999, "REV_AT_EPOCH": 379, "BSTAR": -0.0012721, "MEAN_MOTION_DOT": -0.00074334, "MEAN_MOTION_DDOT": 0}, "tle": {"line1": "1 66864U 25281S   25361.50002315 -.00074334  00000+0 -12721-2 0  9998", "line2": "2 66864  43.0004  33.2724 0000934 285.9706 332.6797 15.50606605  3797"}}, "geometry": {"type": "Point", "coordinates": [64.99230763906391, 27.83123784291168]}}, {"type": "Feature", "properties": {"norad_id": 66865, "name": "STARLINK-36117", "group": "last-30-days", "lat": 29.944232891347898, "lon": 68.65670637881996, "alt_km": 410.66739303274517, "timestamp": "2025-12-27T23:26:36.073848+00:00", "meta": {"OBJECT_NAME": "STARLINK-36117", "OBJECT_ID": "2025-281T", "EPOCH": "2025-12-27T12:00:02.000160", "MEAN_MOTION": 15.50481556, "ECCENTRICITY": 0.000125, "INCLINATION": 43.0005, "RA_OF_ASC_NODE": 33.2632, "ARG_OF_PERICENTER": 278.6097, "MEAN_ANOMALY": 343.9275, "EPHEMERIS_TYPE": 0, "CLASSIFICATION_TYPE": "U", "NORAD_CAT_ID": 66865, "ELEMENT_SET_NO": 999, "REV_AT_EPOCH": 376, "BSTAR": 0.0022846, "MEAN_MOTION_DOT": 0.00135559, "MEAN_MOTION_DDOT": 0}, "tle": {"line1": "1 66865U 25281T   25361.50002315  .00135559  00000+0  22846-2 0  9993", "line2": "2 66865  43.0005  33.2632 0001250 278.6097 343.9275 15.50481556  3760"}}, "geometry": {"type": "Point", "coordinates": [68.65670637881996, 29.944232891347898]}}, {"type": "Feature", "properties": {"norad_id": 66866, "name": "STARLINK-36126", "group": "last-30-days", "lat": 30.953315077280163, "lon": 70.5300722563185, "alt_km": 410.59609902705233, "timestamp": "2025-12-27T23:26:36.073858+00:00", "meta": {"OBJECT_NAME": "STARLINK-36126", "OBJECT_ID": "2025-281U", "EPOCH": "2025-12-27T12:00:02.000160", "MEAN_MOTION": 15.50597495, "ECCENTRICITY": 9.14e-05, "INCLINATION": 43.0004, "RA_OF_ASC_NODE": 33.2582, "ARG_OF_PERICENTER": 278.9572, "MEAN_ANOMALY": 345.4475, "EPHEMERIS_TYPE": 0, "CLASSIFICATION_TYPE": "U", "NORAD_CAT_ID": 66866, "ELEMENT_SET_NO": 999, "REV_AT_EPOCH": 379, "BSTAR": -0.0010121, "MEAN_MOTION_DOT": -0.00059308, "MEAN_MOTION_DDOT": 0}, "tle": {"line1": "1 66866U 25281U   25361.50002315 -.00059308  00000+0 -10121-2 0  9996", "line2": "2 66866  43.0004  33.2582 0000914 278.9572 345.4475 15.50597495  3793"}}, "geometry": {"type": "Point", "coordinates": [70.5300722563185, 30.953315077280163]}}, {"type": "Feature", "properties": {"norad_id": 66867, "name": "STARLINK-36101", "group": "last-30-days", "lat": 31.94073834644041, "lon": 72.45456103958635, "alt_km": 410.48698585583406, "timestamp": "2025-12-27T23:26:36.073868+00:00", "meta": {"OBJECT_NAME": "STARLINK-36101", "OBJECT_ID": "2025-281V", "EPOCH": "2025-12-27T12:00:02.000160", "MEAN_MOTION": 15.50557186, "ECCENTRICITY": 8.49e-05, "INCLINATION": 43.0004, "RA_OF_ASC_NODE": 33.2526, "ARG_OF_PERICENTER": 262.05, "MEAN_ANOMALY": 4.2963, "EPHEMERIS_TYPE": 0, "CLASSIFICATION_TYPE": "U", "NORAD_CAT_ID": 66867, "ELEMENT_SET_NO": 999, "REV_AT_EPOCH": 359, "BSTAR": -3.7817e-06, "MEAN_MOTION_DOT": -5.63e-06, "MEAN_MOTION_DDOT": 0}, "tle": {"line1": "1 66867U 25281V   25361.50002315 -.00000563  00000+0 -37817-5 0  9990", "line2": "2 66867  43.0004  33.2526 0000849 262.0500   4.2963 15.50557186  3597"}}, "geometry": {"type": "Point", "coordinates": [72.45456103958635, 31.94073834644041]}}, {"type": "Feature", "properties": {"norad_id": 66868, "name": "STARLINK-36108", "group": "last-30-days", "lat": 32.90062132597066, "lon": 74.42537821650353, "alt_km": 410.3310895689028, "timestamp": "2025-12-27T23:26:36.073878+00:00", "meta": {"OBJECT_NAME": "STARLINK-36108", "OBJECT_ID": "2025-281W", "EPOCH": "2025-12-27T12:00:02.000160", "MEAN_MOTION": 15.50563422, "ECCENTRICITY": 0.0001056, "INCLINATION": 43.0004, "RA_OF_ASC_NODE": 33.2473, "ARG_OF_PERICENTER": 278.8808, "MEAN_ANOMALY": 349.3806, "EPHEMERIS_TYPE": 0, "CLASSIFICATION_TYPE": "U", "NORAD_CAT_ID": 66868, "ELEMENT_SET_NO": 999, "REV_AT_EPOCH": 359, "BSTAR": -0.00015448, "MEAN_MOTION_DOT": -9.388e-05, "MEAN_MOTION_DDOT": 0}, "tle": {"line1": "1 66868U 25281W   25361.50002315 -.00009388  00000+0 -15448-3 0  9999", "line2": "2 66868  43.0004  33.2473 0001056 278.8808 349.3806 15.50563422  3595"}}, "geometry": {"type": "Point", "coordinates": [74.42537821650353, 32.90062132597066]}}, {"type": "Feature", "properties": {"norad_id": 66869, "name": "STARLINK-36092", "group": "last-30-days", "lat": 33.820891842887505, "lon": 76.4218148466234, "alt_km": 410.21306943455056, "timestamp": "2025-12-27T23:26:36.073887+00:00", "meta": {"OBJECT_NAME": "STARLINK-36092", "OBJECT_ID": "2025-281X", "EPOCH": "2025-12-27T12:00:02.000160", "MEAN_MOTION": 15.5061806, "ECCENTRICITY": 9.58e-05, "INCLINATION": 43.0005, "RA_OF_ASC_NODE": 33.2429, "ARG_OF_PERICENTER": 278.3611, "MEAN_ANOMALY": 351.7728, "EPHEMERIS_TYPE": 0, "CLASSIFICATION_TYPE": "U", "NORAD_CAT_ID": 66869, "ELEMENT_SET_NO": 999, "REV_AT_EPOCH": 379, "BSTAR": -0.0013997, "MEAN_MOTION_DOT": -0.00081711, "MEAN_MOTION_DDOT": 0}, "tle": {"line1": "1 66869U 25281X   25361.50002315 -.00081711  00000+0 -13997-2 0  9996", "line2": "2 66869  43.0005  33.2429 0000958 278.3611 351.7728 15.50618060  3796"}}, "geometry": {"type": "Point", "coordinates": [76.4218148466234, 33.820891842887505]}}]}